ONEWEB-0033             
1 45142U 20008M   24141.66281678  .00000479  00000+0  13361-2 0  9997
2 45142  87.8951 186.8953 0002339  93.4162 266.7233 13.10370900209901
ONEWEB-0035             
1 45143U 20008N   24141.69433362 -.00000645  00000+0 -18845-2 0  9999
2 45143  87.8959 186.8691 0002188  95.7190 264.4187 13.10372318209624
ONEWEB-0036             
1 45144U 20008P   24141.60801671 -.00000515  00000+0 -15117-2 0  9998
2 45144  87.8954 186.8441 0001904  95.8744 264.2600 13.10371991209156
ONEWEB-0038             
1 45145U 20008Q   24141.60610188  .00001905  00000+0  53429-2 0  9990
2 45145  87.8975 171.7787 0002283 114.7577 245.3789 13.11348744211031
ONEWEB-0039             
1 45146U 20008R   24141.66612769  .00000304  00000+0  83491-3 0  9999
2 45146  87.8952 186.8499 0001632 101.5860 258.5450 13.10372481209739
ONEWEB-0040             
1 45147U 20008S   24141.58313653  .00000591  00000+0  16577-2 0  9999
2 45147  87.8962 186.8660 0002062  97.8265 262.3097 13.10372621208640
ONEWEB-0043             
1 45149U 20008U   24141.66115588  .00000571  00000+0  16002-2 0  9998
2 45149  87.8955 186.8589 0001586 101.8844 258.2461 13.10372640209756
ONEWEB-0044             
1 45150U 20008V   24141.61299477 -.00000740  00000+0 -21555-2 0  9994
2 45150  87.8957 186.8646 0001783  98.0813 262.0517 13.10371618209261
